ISS OBJECT XW           
1 66910U 98067XW  26052.49923193  .00101624  00000+0  10354-2 0  9995
2 66910  51.6256 147.7860 0003643   8.3578 351.7476 15.64298565 12646
ISS OBJECT XX           
1 66911U 98067XX  26052.49079587  .00176042  00000+0  15102-2 0  9997
2 66911  51.6239 146.9740 0005621   0.2156 359.8842 15.68283857 12645
ISS OBJECT XY           
1 66912U 98067XY  26052.52422366  .00070899  00000+0  83556-3 0  9991
2 66912  51.6290 148.7141 0001745  12.5205 347.5831 15.60717230 12621
ISS OBJECT XZ           
1 67683U 98067XZ  26052.49203359  .00039280  00000+0  68048-3 0  9990
2 67683  51.6314 152.2476 0010073 132.3559 227.8285 15.50458827  2278
GXIBA-1                 
1 67684U 98067YA  26052.48391139  .00073407  00000+0  12031-2 0  9993
2 67684  51.6313 152.1932 0011703 125.0335 235.1755 15.51722963  2276
CORAL                   
1 67685U 98067YB  26052.49053636  .00043161  00000+0  74046-3 0  9991
2 67685  51.6309 152.2369 0012028 128.6764 231.5303 15.50667475  2277
ISS OBJECT YC           
1 67686U 98067YC  26052.48901008  .00051525  00000+0  87491-3 0  9997
2 67686  51.6316 152.2270 0007716 100.0521 260.1340 15.50924553  2272
LEOPARD                 
1 67687U 98067YD  26052.55560697  .00039157  00000+0  67588-3 0  9993
2 67687  51.6314 151.9223 0007798 102.9364 257.2497 15.50585177  2209
ISS OBJECT YE           
1 67688U 98067YE  26052.48963721  .00047348  00000+0  80842-3 0  9990
2 67688  51.6323 152.2323 0007699 100.5477 259.6380 15.50807123  2197
CREW DRAGON 12          
1 67796U 26031A   26052.57165169  .00010573  00000+0  20534-3 0  9994
2 67796  51.6321 152.0271 0008520 119.1208 241.0634 15.48184707553806
